1 45519U 85100E   22359.91598379  .00000516  00000-0  12483-2 0  9992
2 45519  82.5438 205.6069 0023656 270.4335  89.4078 13.20146451387641
1 45520U 85100F   22354.86271984  .00000351  00000-0  81886-3 0  9994
2 45520  82.5498 197.7229 0018544 267.2938  92.6065 13.21846749285075
1 45521U 88005BB  23002.92016449  .00001984  00000-0  15675-2 0  9998
2 45521  82.5175 227.1254 0020235 325.6826  34.3029 13.91026431462063
1 45522U 88005BC  22365.04114569  .00001206  00000-0  89579-3 0  9997
2 45522  82.5393 218.5225 0018680 306.4201  53.5242 13.94297562415058
1 45523U 90017D   23003.41455545  .00000239  00000-0  22820-3 0  9998
2 45523  82.9528 262.9737 0041564 256.6432 103.0089 13.76294740457818
1 45524U 90086F   23004.56224764  .00001266  00000-0  98646-3 0  9999
2 45524  82.5285 105.5879 0036878 212.6428 147.2457 13.91329033449601
1 45526U 99025EYR 23002.46757514  .00002874  00000-0  15001-2 0  9993
2 45526  98.8302  70.7224 0062475  73.6142 287.1887 14.14236827281193
1 45527U 99025EYS 23004.13142095  .00002327  00000-0  12274-2 0  9994
2 45527  98.8169  70.6401 0062854  69.1479 291.6410 14.13856392243559
1 45530U 20024B   23004.15911729  .00090514  00000-0  61688-3 0  9990
2 45530  59.7869 166.4552 0012842 128.0230 232.2032 15.74181636153033
1 45531U 20025A   23004.48184160  .00003032  00000-0  22236-3 0  9994
2 45531  53.0557 275.0057 0001859  60.7996 299.3179 15.06401808150224
1 45532U 20025B   23004.16115640  .00001278  00000-0  10466-3 0  9999
2 45532  53.0517 276.4414 0001615 106.4248 253.6919 15.06396769150179
1 45534U 20025D   23004.43761647  .00007826  00000-0  54369-3 0  9990
2 45534  53.0547 275.1913 0001534  46.6935 313.4182 15.06400956150218
1 45535U 20025E   23004.45604370  .00011563  00000-0  79347-3 0  9998
2 45535  53.0553 275.1197 0001601  79.7394 280.3775 15.06418454150224
1 45536U 20025F   23004.06164109  .00002275  00000-0  17158-3 0  9999
2 45536  53.0530 276.8858 0001511 109.2507 250.8645 15.06400667150154
1 45537U 20025G   23004.51801874  .00163329  00000-0  30603-2 0  9994
2 45537  52.9675 191.2269 0004802 184.5618 175.5345 15.47594473151351
1 45538U 20025H   23004.48552798  .00000669  00000-0  63844-4 0  9991
2 45538  53.0549 274.9829 0001993  50.2960 309.8204 15.06396814150227
1 45540U 20025K   23004.46340980  .00004087  00000-0  29304-3 0  9990
2 45540  53.0539 275.0898 0001603  62.8822 297.2330 15.06410811150214
1 45541U 20025L   23004.46708885  .00004531  00000-0  32282-3 0  9996
2 45541  53.0558 275.0724 0002102  37.2077 322.9057 15.06407971150212
1 45542U 20025M   23004.56661065  .00008271  00000-0  57324-3 0  9995
2 45542  53.0536 274.6235 0001784  51.6759 308.4390 15.06418650150230
1 45543U 20025N   23004.27174439  .00007135  00000-0  49735-3 0  9993
2 45543  53.0526 275.9414 0001463  93.8244 266.2912 15.06405102149286
1 45544U 20025P   23004.15747946  .00002491  00000-0  18611-3 0  9999
2 45544  53.0546 276.4587 0001430  66.6165 293.4974 15.06393529150179
1 45545U 20025Q   23004.44129839  .00004228  00000-0  30251-3 0  9991
2 45545  53.0515 275.1822 0001205 106.4123 253.6998 15.06404001150195
1 45546U 20025R   23004.45234878  .00003621  00000-0  26181-3 0  9996
2 45546  53.0537 275.1260 0001616  61.6091 298.5060 15.06405982150218
1 45547U 20025S   23004.44866442  .00005646  00000-0  39761-3 0  9991
2 45547  53.0529 275.1547 0001522  72.6451 287.4704 15.06400411150221
1 45548U 20025T   23004.47446229  .00004606  00000-0  32783-3 0  9994
2 45548  53.0539 275.0284 0001942  57.3109 302.8067 15.06407425150211
1 45550U 20025V   23004.55829891  .00001359  00000-0  11014-3 0  9992
2 45550  53.0558 274.6429 0001733  56.9018 303.2138 15.06398925150222
1 45551U 20025W   23004.42839913  .00002088  00000-0  15905-3 0  9998
2 45551  53.0555 255.2490 0001619  73.5393 286.5773 15.06396353150497
1 45553U 20025Y   23004.17406927  .00008842  00000-0  61151-3 0  9995
2 45553  53.0552 256.3806 0001659  70.0856 290.0311 15.06415508149163
1 45554U 20025Z   23004.03306208  .00000172  00000-0  30482-4 0  9994
2 45554  53.0546 257.0073 0001624  49.8953 310.2178 15.06381970150438
1 45555U 20025AA  23004.39522555  .00003346  00000-0  24343-3 0  9993
2 45555  53.0512 255.3911 0001412 110.8489 249.2651 15.06392958150482
1 45556U 20025AB  23004.10403416  .00002121  00000-0  16130-3 0  9992
2 45556  53.0542 256.6886 0001289  69.3032 290.8095 15.06392327150445
1 45557U 20025AC  23004.11140792  .00000980  00000-0  84710-4 0  9990
2 45557  53.0520 256.6545 0001444  78.8737 281.2415 15.06392077150446
1 45558U 20025AD  23004.40997333  .00000693  00000-0  65384-4 0  9991
2 45558  53.0525 255.3231 0001328  92.1669 267.9472 15.06401567150487
1 45559U 20025AE  23004.17681215  .00008812  00000-0  60954-3 0  9993
2 45559  53.0543 256.3081 0001562  66.1177 293.9975 15.06412248150459
1 45560U 20025AF  23004.36571142  .00004508  00000-0  32136-3 0  9992
2 45560  53.0529 245.5153 0001601  77.2816 282.8352 15.06401003150028
1 45561U 20025AG  23003.92425636  .00046944  00000-0  18687-2 0  9994
2 45561  53.0683 150.6475 0003875 135.8027 224.3280 15.24811599151929
1 45562U 20025AH  23004.38785584 -.00000408  00000-0 -84870-5 0  9994
2 45562  53.0551 255.4076 0001579  74.8129 285.3034 15.06391848149885
1 45563U 20025AJ  23004.40259965  .00002740  00000-0  20277-3 0  9995
2 45563  53.0550 255.3447 0001468  79.8428 280.2726 15.06401329150486
1 45564U 20025AK  23004.39890951  .00001584  00000-0  12519-3 0  9995
2 45564  53.0515 255.3735 0001303  85.6575 274.4563 15.06397993149881
1 45565U 20025AL  23004.39153368  .00001615  00000-0  12729-3 0  9998
2 45565  53.0554 255.4066 0001473  78.0824 282.0330 15.06396840149881
1 45566U 20025AM  23004.40628529  .00001289  00000-0  10546-3 0  9999
2 45566  53.0535 255.3364 0001424 101.7309 258.3840 15.06389133150486
1 45567U 20025AN  23004.41734692  .00002987  00000-0  21943-3 0  9999
2 45567  53.0553 255.2773 0001532  74.3537 285.7621 15.06389800150491
1 45568U 20025AP  23004.43212035  .00006786  00000-0  47386-3 0  9994
2 45568  53.0546 255.4740 0001896  54.6039 305.5127 15.06412540150480
1 45569U 20025AQ  23004.48736241  .00005379  00000-0  37989-3 0  9995
2 45569  53.0543 254.9824 0002690  33.2106 326.9051 15.06384173150490
1 45570U 20025AR  23004.41365213  .00003522  00000-0  25517-3 0  9999
2 45570  53.0543 255.2985 0001511  77.0497 283.0661 15.06403555150489
1 45571U 20025AS  23004.03124473  .00004303  00000-0  30758-3 0  9990
2 45571  53.0546 247.0106 0001692  52.3990 307.7152 15.06400947150583
1 45572U 20025AT  23004.35560408  .00002072  00000-0  15801-3 0  9991
2 45572  53.0536 245.5645 0001547  71.3213 288.7943 15.06394399150626
1 45573U 20025AU  23004.39983472  .00003291  00000-0  23971-3 0  9997
2 45573  53.0539 245.3670 0001580  76.2641 283.8524 15.06402502150023
1 45574U 20025AV  23004.35928841  .00009023  00000-0  62366-3 0  9993
2 45574  53.0544 245.5404 0001491  74.4047 285.7107 15.06413053150636
1 45575U 20025AW  23004.00833464  .00047024  00000-0  17941-2 0  9993
2 45575  53.0019 216.3403 0005751 141.6464 218.4943 15.26217945150963
1 45576U 20025AX  23004.38508634  .00002063  00000-0  15734-3 0  9996
2 45576  53.0534 245.4431 0001654  66.4280 293.6882 15.06395650150637
1 45577U 20025AY  23003.93752580  .00026294  00000-0  14977-2 0  9997
2 45577  53.0520 244.5982 0003236 113.4148 246.7184 15.12659244150596
1 45578U 20025AZ  23004.37772064  .00005074  00000-0  35926-3 0  9997
2 45578  53.0548 245.4708 0001533  71.5969 288.5186 15.06403699150631
1 45579U 20025BA  23004.25241274  .00001015  00000-0  87031-4 0  9995
2 45579  53.0543 206.1843 0001340  95.1810 264.9331 15.06394494151165
1 45580U 20025BB  23004.51686325  .00001083  00000-0  91636-4 0  9997
2 45580  53.0544 254.8321 0001508  77.1138 283.0020 15.06394010150506
1 45581U 20025BC  23004.38877241  .00006090  00000-0  42728-3 0  9992
2 45581  53.0540 245.4150 0001550 109.5791 250.5365 15.06407425150024
1 45582U 20025BD  23003.94646554  .00004321  00000-0  30884-3 0  9990
2 45582  53.0513 247.4045 0001599  93.5024 266.6148 15.06393195150557
1 45583U 20025BE  23004.39245485  .00009896  00000-0  68199-3 0  9991
2 45583  53.0534 245.4080 0001305  95.2867 264.8271 15.06416743150627
1 45584U 20025BF  23004.38045131  .00006399  00000-0  44799-3 0  9992
2 45584  53.0524 245.4502 0001562  70.0943 290.0214 15.06410574150621
1 45586U 20025BH  23004.40351584  .00007871  00000-0  54651-3 0  9993
2 45586  53.0501 245.3560 0001385  92.0260 268.0888 15.06411243150615
1 45587U 20025BJ  23004.37403024  .00005974  00000-0  41952-3 0  9999
2 45587  53.0531 245.4833 0001387 110.4691 249.6447 15.06407882150629
1 45588U 20025BK  23004.48461103  .00005874  00000-0  41278-3 0  9994
2 45588  53.0528 244.9792 0001415  79.9819 280.1330 15.06413048150630
1 45589U 20025BL  23004.14917690  .00015434  00000-0  10525-2 0  9998
2 45589  53.0525 246.4972 0001405  68.7414 291.3725 15.06410107150580
1 45590U 20025BM  23003.96581097  .00003325  00000-0  24208-3 0  9997
2 45590  53.0536 277.3102 0001866  52.5693 307.5466 15.06393547150156
1 45602U 20028A   23004.48000376  .00002764  00000-0  21365-3 0  9995
2 45602  97.4541  19.3997 0012159 198.4501 320.1579 15.02252482145124
1 45603U 20028B   23004.50064417  .00001637  00000-0  12894-3 0  9990
2 45603  97.5392  24.1212 0008804 244.0777 115.9547 15.02127517145135
1 45605U 20011D   23004.13789378  .00014414  00000-0  39631-3 0  9998
2 45605  51.6420 195.6406 0006471 191.8456 168.2377 15.37422035147887
1 45608U 20031A   23004.45836324 -.00000359  00000-0  00000+0 0  9990
2 45608  63.2085 201.6597 6607970 266.9501  73.1203  2.00634959 19197
1 45609U 20031B   23004.53342429 -.00000686  00000-0  00000-0 0  9992
2 45609  63.6579 201.8595 6624996 264.2177  22.7239  2.01461597 19283
1 45611U 20032A   23004.34983154  .00020286  00000-0  47142-3 0  9999
2 45611  35.0313 235.5769 0006556 128.8416 231.2891 15.41398743145688
1 45612U 20032B   23004.04518715  .00023015  00000-0  50725-3 0  9998
2 45612  35.0322 236.8818 0005577 106.8236 253.3098 15.42964405145641
